GLOBALSTAR M035         
1 25851U 99037A   26022.42793879 -.00000089  00000+0 -96027-3 0  9995
2 25851  51.9963 286.0388 0013802 341.5033 190.2752 11.04541625120484
GLOBALSTAR M032         
1 25852U 99037B   26022.44183798 -.00000186  00000+0 -38212-2 0  9990
2 25852  51.9959  96.0758 0013090 175.0321 185.0610 11.19070509159334
GLOBALSTAR M051         
1 25853U 99037C   26022.53648228 -.00000071  00000+0  31320-4 0  9992
2 25853  51.9763 231.7398 0001152  79.0641 281.0299 11.42199831157457
GLOBALSTAR M030         
1 25854U 99037D   26022.36189001 -.00000121  00000+0 -98462-3 0  9999
2 25854  51.9903  24.3239 0003496  76.5348 283.5859 11.55110109175378
GLOBALSTAR M048         
1 25872U 99041A   26022.44360767 -.00000077  00000+0 -18036-3 0  9992
2 25872  51.9337 175.4704 0013091 198.8720 193.7847 11.33861863149857
GLOBALSTAR M026         
1 25873U 99041B   26022.44361522 -.00000111  00000+0 -17319-2 0  9994
2 25873  52.0027  41.6439 0001757 270.1927 239.5345 11.06842454172767
GLOBALSTAR M043         
1 25874U 99041C   26022.53312316 -.00000073  00000+0 -13127-3 0  9993
2 25874  51.9414 291.6451 0013550 328.7920 203.1795 11.25695981147573
GLOBALSTAR M028         
1 25875U 99041D   26021.82454168 -.00000074  00000+0  17204-3 0  9997
2 25875  51.9616 261.1215 0062930 185.5983 174.4181 12.50594558217532
